1 43057U 17079C   18179.30867943 -.00000062  00000-0  00000+0 0  9997
2 43057  56.8414 301.5032 0002868 234.2861 125.6823  1.70474492  3360
1 43057U 17079C   18183.41481997 -.00000043  00000-0  00000-0 0  9995
2 43057  56.8381 301.3919 0003035 234.8940 125.0951  1.70474481  3438
1 43057U 17079C   18183.41482017 -.00000043  00000-0  00000+0 0  9998
2 43057  56.8382 301.3918 0003031 234.7478 125.2413  1.70474484  3437
1 43057U 17079C   18184.58799765 -.00000040  00000-0  00000+0 0  9995
2 43057  56.8371 301.3599 0003062 234.6347 125.3573  1.70474466  3458
1 43057U 17079C   18185.17458484 -.00000039  00000-0  00000-0 0  9990
2 43057  56.8365 301.3440 0003104 234.5581 125.4343  1.70474437  3467
1 43057U 17079C   18185.76117154 -.00000039  00000-0  00000+0 0  9990
2 43057  56.8362 301.3281 0003118 234.6068 125.3855  1.70474424  3477
1 43057U 17079C   18186.34775742 -.00000039  00000-0  00000-0 0  9999
2 43057  56.8357 301.3121 0003145 234.5478 125.4439  1.70474402  3484
1 43057U 17079C   18186.34775775 -.00000039  00000-0  00000-0 0  9995
2 43057  56.8358 301.3121 0003124 234.5591 125.4328  1.70474419  3483
1 43057U 17079C   18188.69409598 -.00000042  00000-0  00000+0 0  9995
2 43057  56.8338 301.2482 0003233 234.6383 125.3482  1.70474337  3525
1 43057U 17079C   18189.86726613 -.00000044  00000-0  00000-0 0  9998
2 43057  56.8329 301.2162 0003275 234.7775 125.2069  1.70474308  3542
1 43057U 17079C   18189.86726657 -.00000044  00000-0  00000+0 0  9995
2 43057  56.8329 301.2161 0003261 234.6803 125.3043  1.70474316  3549
1 43057U 17079C   18191.04043959 -.00000044  00000-0  00000+0 0  9995
2 43057  56.8319 301.1842 0003314 234.9382 125.0460  1.70474285  3564
1 43057U 17079C   18192.21361764 -.00000044  00000-0  00000+0 0  9992
2 43057  56.8310 301.1522 0003340 235.0078 124.9789  1.70474275  3586
1 43057U 17079C   18192.80020739 -.00000044  00000-0  00000-0 0  9992
2 43057  56.8305 301.1363 0003372 235.1826 124.8059  1.70474266  3590
1 43057U 17079C   18193.97339016 -.00000044  00000-0  00000-0 0  9992
2 43057  56.8295 301.1043 0003389 235.2647 124.7291  1.70474265  3612
1 43057U 17079C   18194.55998087 -.00000044  00000-0  00000+0 0  9995
2 43057  56.8290 301.0883 0003425 235.4346 124.5618  1.70474268  3622
1 43057U 17079C   18199.25268331 -.00000065  00000-0  00000+0 0  9992
2 43057  56.8250 300.9604 0003581 236.1290 123.8717  1.70474338  3705
1 43057U 17079C   18201.59902005 -.00000072  00000-0  00000+0 0  9994
2 43057  56.8231 300.8964 0003661 236.7556 123.2387  1.70474405  3748
1 43057U 17079C   18203.35877925 -.00000069  00000-0  00000+0 0  9998
2 43057  56.8216 300.8484 0003710 237.2257 122.7680  1.70474463  3774
1 43057U 17079C   18204.53195678 -.00000064  00000-0  00000-0 0  9993
2 43057  56.8207 300.8165 0003749 237.5434 122.4528  1.70474504  3798
1 43057U 17079C   18206.29172936 -.00000053  00000-0  00000-0 0  9998
2 43057  56.8193 300.7686 0003814 237.8216 122.1821  1.70474535  3824
1 43057U 17079C   18209.81127963 -.00000034  00000-0  00000-0 0  9998
2 43057  56.8165 300.6728 0003959 238.5857 121.4368  1.70474526  3882
1 43057U 17079C   18211.57104834 -.00000027  00000-0  00000+0 0  9997
2 43057  56.8151 300.6249 0004000 238.7849 121.2429  1.70474498  3914
1 43057U 17079C   18212.15763615 -.00000026  00000-0  00000-0 0  9990
2 43057  56.8146 300.6089 0003995 238.7573 121.2715  1.70474483  3929
1 43057U 17079C   18213.91739463 -.00000024  00000-0  00000+0 0  9996
2 43057  56.8130 300.5610 0004048 238.9143 121.1131  1.70474426  3957
1 43057U 17079C   18218.61007651 -.00000026  00000-0  00000+0 0  9997
2 43057  56.8092 300.4327 0004235 239.6795 120.3391  1.70474264  4036
1 43057U 17079C   18219.19666513 -.00000026  00000-0  00000-0 0  9990
2 43057  56.8089 300.4167 0004250 239.8107 120.2088  1.70474253  4041
1 43057U 17079C   18220.36984421 -.00000025  00000-0  00000-0 0  9991
2 43057  56.8080 300.3846 0004291 240.1987 119.8240  1.70474233  4065
1 43057U 17079C   18220.36984457 -.00000025  00000-0  00000+0 0  9999
2 43057  56.8080 300.3846 0004279 240.0756 119.9473  1.70474238  4068
1 43057U 17079C   18222.12961660 -.00000024  00000-0  00000+0 0  9995
2 43057  56.8066 300.3367 0004336 240.6835 119.3460  1.70474223  4095
1 43057U 17079C   18222.71620690 -.00000025  00000-0  00000-0 0  9997
2 43057  56.8061 300.3207 0004351 240.7915 119.2399  1.70474225  4104
1 43057U 17079C   18223.88938451 -.00000029  00000-0  00000-0 0  9997
2 43057  56.8051 300.2887 0004385 241.0676 118.9659  1.70474237  4121
1 43057U 17079C   18224.47597158 -.00000032  00000-0  00000-0 0  9992
2 43057  56.8046 300.2727 0004403 241.2173 118.8163  1.70474247  4134
1 43057U 17079C   18226.23572737 -.00000042  00000-0  00000-0 0  9995
2 43057  56.8032 300.2246 0004439 241.5264 118.5035  1.70474265  4166
1 43057U 17079C   18230.34181619 -.00000049  00000-0  00000+0 0  9993
2 43057  56.7999 300.1123 0004551 242.8565 117.1610  1.70474366  4237
1 43057U 17079C   18232.68817108 -.00000037  00000-0  00000+0 0  9998
2 43057  56.7981 300.0482 0004627 243.2880 116.7330  1.70474417  4279
1 43057U 17079C   18233.27476141 -.00000034  00000-0  00000-0 0  9990
2 43057  56.7976 300.0321 0004644 243.4205 116.6027  1.70474431  4286
1 43057U 17079C   18235.62112613 -.00000020  00000-0  00000+0 0  9996
2 43057  56.7960 299.9682 0004704 244.0263 116.0072  1.70474450  4323
1 43057U 17079C   18237.38089744 -.00000011  00000-0  00000+0 0  9999
2 43057  56.7947 299.9201 0004756 244.7054 115.3342  1.70474418  4356
1 43057U 17079C   18238.55407496 -.00000007  00000-0  00000+0 0  9992
2 43057  56.7939 299.8881 0004765 245.0158 115.0260  1.70474388  4373
1 43057U 17079C   18238.55407515 -.00000007  00000-0  00000-0 0  9995
2 43057  56.7939 299.8881 0004768 245.0349 115.0068  1.70474384  4370
1 43057U 17079C   18239.72724886 -.00000004  00000-0  00000+0 0  9994
2 43057  56.7930 299.8561 0004789 245.2589 114.7826  1.70474348  4397
1 43057U 17079C   18242.66016984 -.00000003  00000-0  00000+0 0  9993
2 43057  56.7909 299.7761 0004933 245.6870 114.3447  1.70474250  4445
1 43057U 17079C   18243.24675331 -.00000003  00000-0  00000-0 0  9996
2 43057  56.7904 299.7601 0004892 245.7811 114.2487  1.70474230  4455
1 43057U 17079C   18245.59309252 -.00000004  00000-0  00000+0 0  9992
2 43057  56.7887 299.6959 0004936 246.2744 113.7491  1.70474156  4490
1 43057U 17079C   18246.76626742 -.00000004  00000-0  00000+0 0  9998
2 43057  56.7878 299.6638 0004959 246.5440 113.4796  1.70474127  4511
1 43057U 17079C   18247.93944694 -.00000002  00000-0  00000+0 0  9995
2 43057  56.7870 299.6316 0004971 246.6585 113.3673  1.70474088  4532
1 43057U 17079C   18250.28580536 -.00000004  00000-0  00000+0 0  9990
2 43057  56.7851 299.5675 0005010 247.2052 112.8257  1.70474075  4571
1 43057U 17079C   18250.87239340 -.00000006  00000-0  00000-0 0  9992
2 43057  56.7847 299.5515 0005023 247.4419 112.5892  1.70474074  4584
1 43057U 17079C   18252.04556534 -.00000012  00000-0  00000+0 0  9996
2 43057  56.7837 299.5194 0005063 248.0132 112.0158  1.70474090  4600
1 43057U 17079C   18253.21873467 -.00000020  00000-0  00000+0 0  9992
2 43057  56.7828 299.4873 0005088 248.5141 111.5105  1.70474081  4623
1 43057U 17079C   18254.97848156 -.00000029  00000-0  00000+0 0  9992
2 43057  56.7813 299.4392 0005103 248.7136 111.3018  1.70474133  4659
1 43057U 17079C   18254.97848191 -.00000029  00000-0  00000-0 0  9992
2 43057  56.7814 299.4392 0005116 249.0750 110.9401  1.70474126  4653
1 43057U 17079C   18257.32481505 -.00000032  00000-0  00000-0 0  9990
2 43057  56.7797 299.3750 0005153 249.9000 110.1048  1.70474196  4698
1 43057U 17079C   18257.32481507 -.00000032  00000-0  00000+0 0  9991
2 43057  56.7797 299.3750 0005153 249.8709 110.1339  1.70474194  4694
1 43057U 17079C   18258.49798736 -.00000028  00000-0  00000+0 0  9990
2 43057  56.7788 299.3429 0005166 250.1829 109.8202  1.70474218  4713
1 43057U 17079C   18260.25775274 -.00000019  00000-0  00000+0 0  9999
2 43057  56.7776 299.2948 0005202 250.8446 109.1602  1.70474277  4743
1 43057U 17079C   18262.01752424 -.00000009  00000-0  00000+0 0  9996
2 43057  56.7762 299.2466 0005208 250.3340 109.6764  1.70474283  4771
1 43057U 17079C   18262.01752490 -.00000009  00000-0  00000-0 0  9990
2 43057  56.7762 299.2465 0005211 250.5656 109.4447  1.70474273  4771
1 43057U 17079C   18264.36388552  .00000001  00000-0  00000-0 0  9995
2 43057  56.7748 299.1823 0005259 251.2781 108.7381  1.70474244  4813
1 43057U 17079C   18264.95047413  .00000003  00000-0  00000-0 0  9990
2 43057  56.7743 299.1663 0005263 251.3182 108.6987  1.70474239  4827
1 43057U 17079C   18267.29682132  .00000009  00000-0  00000-0 0  9999
2 43057  56.7719 299.1026 0005294 252.3499 107.6641  1.70474145  4865
1 43057U 17079C   18267.88340597  .00000009  00000-0  00000-0 0  9990
2 43057  56.7718 299.0865 0005286 252.5291 107.4830  1.70474133  4873
1 43057U 17079C   18269.05657269  .00000009  00000-0  00000+0 0  9997
2 43057  56.7710 299.0544 0005302 252.8599 107.1467  1.70474077  4894
1 43057U 17079C   18269.64315557  .00000008  00000-0  00000-0 0  9993
2 43057  56.7706 299.0384 0005310 252.9689 107.0347  1.70474064  4905
1 43057U 17079C   18271.40290477  .00000006  00000-0  00000+0 0  9990
2 43057  56.7690 298.9904 0005317 253.3867 106.6081  1.70474001  4937
1 43057U 17079C   18271.98948900  .00000006  00000-0  00000-0 0  9995
2 43057  56.7686 298.9743 0005327 253.4999 106.4925  1.70473987  4949
1 43057U 17079C   18273.16266017  .00000005  00000-0  00000+0 0  9997
2 43057  56.7681 298.9422 0005337 253.6568 106.3326  1.70473955  4964
1 43057U 17079C   18274.33583499  .00000006  00000-0  00000+0 0  9994
2 43057  56.7672 298.9101 0005347 254.1048 105.8839  1.70473927  4982
1 43057U 17079C   18276.68219231  .00000005  00000-0  00000+0 0  9993
2 43057  56.7657 298.8459 0005356 254.7829 105.2087  1.70473894  5021
